{"type": "FeatureCollection", "features": [{"type": "Feature", "properties": {"norad_id": 50032, "name": "COSMOS 1408 DEB", "group": "cosmos-1408-debris", "lat": 66.48660107023258, "lon": -147.1188278834329, "alt_km": 418.31705900481484, "timestamp": "2025-12-20T16:47:36.557133+00:00", "meta": {"OBJECT_NAME": "COSMOS 1408 DEB", "OBJECT_ID": "1982-092RU", "EPOCH": "2025-12-20T05:25:58.947744", "MEAN_MOTION": 15.45764789, "ECCENTRICITY": 0.0015981, "INCLINATION": 82.5638, "RA_OF_ASC_NODE": 50.8358, "ARG_OF_PERICENTER": 180.5492, "MEAN_ANOMALY": 179.5742, "EPHEMERIS_TYPE": 0, "CLASSIFICATION_TYPE": "U", "NORAD_CAT_ID": 50032, "ELEMENT_SET_NO": 999, "REV_AT_EPOCH": 22719, "BSTAR": 8.0316e-05, "MEAN_MOTION_DOT": 3.945e-05, "MEAN_MOTION_DDOT": 0}, "tle": {"line1": "1 50032U 82092RU  25354.22637671  .00003945  00000+0  80316-4 0  9996", "line2": "2 50032  82.5638  50.8358 0015981 180.5492 179.5742 15.45764789227198"}}, "geometry": {"type": "Point", "coordinates": [-147.1188278834329, 66.48660107023258]}}, {"type": "Feature", "properties": {"norad_id": 50058, "name": "COSMOS 1408 DEB", "group": "cosmos-1408-debris", "lat": 52.484757452418144, "lon": -128.72083318519762, "alt_km": 363.4704710029928, "timestamp": "2025-12-20T16:47:36.557154+00:00", "meta": {"OBJECT_NAME": "COSMOS 1408 DEB", "OBJECT_ID": "1982-092SW", "EPOCH": "2025-12-20T11:38:58.794144", "MEAN_MOTION": 15.64543293, "ECCENTRICITY": 0.001615, "INCLINATION": 82.6128, "RA_OF_ASC_NODE": 61.2329, "ARG_OF_PERICENTER": 72.3269, "MEAN_ANOMALY": 287.9752, "EPHEMERIS_TYPE": 0, "CLASSIFICATION_TYPE": "U", "NORAD_CAT_ID": 50058, "ELEMENT_SET_NO": 999, "REV_AT_EPOCH": 22925, "BSTAR": 0.00024421, "MEAN_MOTION_DOT": 0.0002374, "MEAN_MOTION_DDOT": 0}, "tle": {"line1": "1 50058U 82092SW  25354.48540271  .00023740  00000+0  24421-3 0  9990", "line2": "2 50058  82.6128  61.2329 0016150  72.3269 287.9752 15.64543293229254"}}, "geometry": {"type": "Point", "coordinates": [-128.72083318519762, 52.484757452418144]}}, {"type": "Feature", "properties": {"norad_id": 50404, "name": "COSMOS 1408 DEB", "group": "cosmos-1408-debris", "lat": -68.85210204374364, "lon": 47.617051986724526, "alt_km": 503.4562486639006, "timestamp": "2025-12-20T16:47:36.557167+00:00", "meta": {"OBJECT_NAME": "COSMOS 1408 DEB", "OBJECT_ID": "1982-092ADS", "EPOCH": "2025-12-19T14:20:11.624064", "MEAN_MOTION": 15.1481285, "ECCENTRICITY": 0.0169261, "INCLINATION": 82.2053, "RA_OF_ASC_NODE": 208.0078, "ARG_OF_PERICENTER": 175.439, "MEAN_ANOMALY": 184.8437, "EPHEMERIS_TYPE": 0, "CLASSIFICATION_TYPE": "U", "NORAD_CAT_ID": 50404, "ELEMENT_SET_NO": 999, "REV_AT_EPOCH": 21297, "BSTAR": 0.0021779, "MEAN_MOTION_DOT": 0.0005852, "MEAN_MOTION_DDOT": 0}, "tle": {"line1": "1 50404U 82092ADS 25353.59735676  .00058520  00000+0  21779-2 0  9997", "line2": "2 50404  82.2053 208.0078 0169261 175.4390 184.8437 15.14812850212975"}}, "geometry": {"type": "Point", "coordinates": [47.617051986724526, -68.85210204374364]}}, {"type": "Feature", "properties": {"norad_id": 50621, "name": "COSMOS 1408 DEB", "group": "cosmos-1408-debris", "lat": -69.46997317349812, "lon": 45.496923068384824, "alt_km": 422.59722292489096, "timestamp": "2025-12-20T16:47:36.557178+00:00", "meta": {"OBJECT_NAME": "COSMOS 1408 DEB", "OBJECT_ID": "1982-092ALR", "EPOCH": "2025-12-20T10:55:44.895936", "MEAN_MOTION": 15.57036715, "ECCENTRICITY": 0.0029085, "INCLINATION": 82.5699, "RA_OF_ASC_NODE": 66.1468, "ARG_OF_PERICENTER": 124.5175, "MEAN_ANOMALY": 235.8832, "EPHEMERIS_TYPE": 0, "CLASSIFICATION_TYPE": "U", "NORAD_CAT_ID": 50621, "ELEMENT_SET_NO": 999, "REV_AT_EPOCH": 22370, "BSTAR": 0.00027044, "MEAN_MOTION_DOT": 0.00019984, "MEAN_MOTION_DDOT": 0}, "tle": {"line1": "1 50621U 82092ALR 25354.45538074  .00019984  00000+0  27044-3 0  9990", "line2": "2 50621  82.5699  66.1468 0029085 124.5175 235.8832 15.57036715223700"}}, "geometry": {"type": "Point", "coordinates": [45.496923068384824, -69.46997317349812]}}]}